#cP2009  6 30  0  0  0.00000000      96 ORBIT IGS05 HLM  IGS
## 1538 172800.00000000   900.00000000 55012 0.0000000000000
+   31   G01G02G03G04G06G07G08G09G10G11G12G13G14G15G16G17G18
+        G19G20G21G22G23G24G25G26G27G28G29G30G31G32  0  0  0
+          0  0  0  0  0  0  0  0  0  0  0  0  0  0  0  0  0
+          0  0  0  0  0  0  0  0  0  0  0  0  0  0  0  0  0
+          0  0  0  0  0  0  0  0  0  0  0  0  0  0  0  0  0
++         4  2  2  2  2  2  2  2  2  2  2  2  2  2  2  3  2
++         2  2  2  2  2  2  3  2  2  2  2  3  2  3  0  0  0
++         0  0  0  0  0  0  0  0  0  0  0  0  0  0  0  0  0
++         0  0  0  0  0  0  0  0  0  0  0  0  0  0  0  0  0
++         0  0  0  0  0  0  0  0  0  0  0  0  0  0  0  0  0
%c G  cc GPS ccc cccc cccc cccc cccc ccccc ccccc ccccc ccccc
%c cc cc ccc ccc cccc cccc cccc cccc ccccc ccccc ccccc ccccc
%f  1.2500000  1.025000000  0.00000000000  0.000000000000000
%f  0.0000000  0.000000000  0.00000000000  0.000000000000000
%i    0    0    0    0      0      0      0      0         0
%i    0    0    0    0      0      0      0      0         0
/* FINAL ORBIT COMBINATION FROM WEIGHTED AVERAGE OF:        
/* cod emr esa gfz grg jpl mit ngs sio                      
/* REFERENCED TO IGS TIME (IGST) AND TO WEIGHTED MEAN POLE: 
/* PCV:IGS05_1525 OL/AL:FES2004  NONE     Y  ORB:CMB CLK:CMB
*  2009  6 30 15 45  0.00000000
PG01  18797.319166 -14427.752775  11801.320708 999999.999999
PG02  13032.463850  23402.445432   -570.943575    158.106799  8  7  5  78       
PG03 -18148.503606 -11101.752599 -16426.704736    413.693136  3  4  4  77       
PG04   4105.056347  24006.333262  10013.182430   -154.914736  5  4  5  99       
PG06 -13498.925263 -13509.183974 -18295.059463    178.154458  3  4  5 131       
PG07 -12128.672835   9190.973647 -21782.774142     16.081695  7  6  6 100       
PG08  -3361.621183  19952.422815 -16973.209180   -209.781455  7  7  4  95       
PG09  18043.733810   9409.980263  16451.776441     63.952243  5  6  5 113       
PG10   8172.798395  14254.929089 -20963.512524    -18.343549  5  8  8 115       
PG11 -20780.317522  -4932.860396  15784.644352     -8.671704  6  5  7  87       
PG12  18021.088973  -3512.329591  19210.330504   -258.242164  8  7  7  88       
PG13 -21840.151735   6689.567765 -13692.639886    300.485165  8  8  6 103       
PG14   6079.118254 -13954.248968  21869.802918    -86.984008  7  6  6  91       
PG15  23371.856125   7758.167578 -10010.212228   -305.049300  6  7  9 113       
PG16  -3351.632370 -18250.202305 -18851.977508     37.172938  7  6  5 130       
PG17  -7136.285111  14423.261070  21170.968741     67.510052  5  8  8 142       
PG18  17050.693540 -19587.415834  -4260.791742    -43.873638  8  7  7 146       
PG19 -24199.220101  -8258.322823  -7604.341156     20.698146  5  6  4 110       
PG20 -18608.630906   5505.337580  17991.354018     78.550235  4  7  4 114       
PG21  10950.755582 -12144.563424 -20554.707067      5.405628  6  7  4  73       
PG22  10411.863324 -23546.821072   6516.602982    196.450688  5  5  7 117       
PG23 -26670.212323   -175.250069  -1688.132908    390.164199  7  7  6 156       
PG24  16668.297079   1317.102493 -20449.162488    200.862987  6  4  2 114       
PG25 -15710.310833   2117.291131 -20936.425529    486.697145  8 10  8 132       
PG26  25017.923816  -3134.123540   8616.648704     64.344703  2  6  7 128       
PG27  18750.446314  14088.255308  13140.787039 999999.999999
PG28 -11961.447435  23151.776991   4591.716122    -25.752292  7  8  6 125       
PG29  23130.402913  -6298.504288 -11282.294496     35.092425  9  8  4 114       
PG30  18361.406919 -14502.074079  12116.312845    157.477762  6  7  8 109       
PG31  -5914.353234 -24339.144183   8823.999003    -63.159360  5  5  6 106       
PG32 -15399.191414  -4470.687430  21525.172868    239.249564  7  8  6 123       
*  2009  6 30 16  0  0.00000000
PG01  18225.072354 -13026.344715  14097.767196 999999.999999
PG02  12739.673371  23453.870066   2218.360488    158.108209  8  7  5  94       
PG03 -16260.016717 -11480.037876 -18061.369674    413.698372  3  4  5  67       
PG04   3207.416538  22997.834759  12423.162115   -154.929087  5  4  5 107       
PG06 -11296.788379 -13737.235145 -19554.431312    178.165457  4  4  5 129       
PG07 -13359.019591   7024.410890 -21880.583304     16.081288  7  6  6 100       
PG08  -4366.618483  18166.977051 -18711.587215   -209.782289  7  7  4 103       
PG09  18876.174400  11093.005540  14432.137517     63.953778  5  7  4 111       
PG10   6857.579094  16167.509357 -19988.188366    -18.344563  5  8  8 120       
PG11 -21716.021514  -6433.448323  13931.391672     -8.673166  6  5  7  95       
PG12  16948.476448  -1524.027418  20424.184081   -258.236487  8  6  6 109       
PG13 -23232.255368   6464.858516 -11272.961397    300.485504  7  8  6 105       
PG14   8504.468124 -13784.879708  21142.057525    -86.978826  7  6  6  89       
PG15  22086.214400   7988.593157 -12441.329447   -305.051738  6  7  8 113       
PG16  -2128.201489 -19939.969615 -17232.921029     37.169768  7  6  5 130       
PG17  -9495.825240  14270.052651  20311.033769     67.512149  6  8  8 143       
PG18  16966.135703 -18836.798641  -7000.399364    -43.871203  7  7  7 145       
PG19 -23164.381636  -8396.257868 -10188.654231     20.697097  4  6  5 115       
PG20 -17685.363114   3538.051387  19359.043859     78.548979  3  7  4 121       
PG21  12188.912895 -10023.784622 -21047.181216      5.403454  6  7  4  92       
PG22  10982.568345 -23863.556343   3781.354140    196.450246  6  5  7 122       
PG23 -26690.907166   -381.900417   1168.704950    390.163888  6  6  6 160       
PG24  17591.526751   3443.494553 -19385.183400    200.866418  5  5  2 139       
PG25 -17013.035697     82.547459 -20002.734343    486.713124  8 10  8 140       
PG26  25890.083712  -2947.428283   5888.849236     64.344961  3  6  7 111       
PG27  19293.816908  15245.810645  10708.739299 999999.999999
PG28 -12347.576091  23282.474454   1734.620199    -25.752341  7  8  6 123       
PG29  24282.377404  -6020.725797  -8749.575634     35.095677  9  9  4 102       
PG30  17823.372675 -13003.681278  14353.545293    157.482080  6  7  8 106       
PG31  -5183.453410 -23451.407541  11388.238810    -63.159713  6  6  6 106       
PG32 -14036.624236  -6456.805707  21979.259084    239.243861  7  8  6  98       
*  2009  6 30 16 15  0.00000000
PG01  17614.478936 -11376.453061  16149.074224 999999.999999
PG02  12278.311072  23261.546300   4970.411256    158.109320  8  7  5 102       
PG03 -14228.475974 -11974.460506 -19396.072036    413.703226  3  4  6  69       
PG04   2122.662436  21812.047518  14613.820069   -154.943523  5  4  4  92       
PG06  -8983.408150 -14081.059907 -20472.450020    178.176416  4  4  6 126       
PG07 -14696.890683   4936.126019 -21602.797574     16.080384  7  6  6 113       
PG08  -5555.118222  16286.658847 -20123.706580   -209.783689  7  7  4 101       
PG09  19656.252165  12519.240926  12154.410472     63.956219  5  7  3 102       
PG10   5702.796052  18034.890264 -18670.744979    -18.345039  5  8  9 113       
PG11 -22556.388042  -7734.541157  11839.182499     -8.674892  7  4  7  97       
PG12  15929.255018    621.397441  21287.547812   -258.231212  7  5  5 102       
PG13 -24350.785278   6322.321177  -8660.575285    300.486394  7  8  6 103       
PG14  10834.382708 -13751.813585  20053.508368    -86.973606  6  7  6  95       
PG15  20551.498521   8301.377450 -14658.762502   -305.054211  6  7  8 124       
PG16  -1091.397255 -21515.836409 -15313.286812     37.166741  8  7  6 137       
PG17 -11745.238780  14235.774602  19102.273299     67.514070  7  8  8 138       
PG18  16769.968808 -17814.460020  -9615.903571    -43.868420  7  7  7 144       
PG19 -21855.844968  -8581.297495 -12599.608610     20.695867  4  6  5 106       
PG20 -16799.434494   1405.422883  20389.772208     78.548414  3  7  4 129       
PG21  13539.862096  -7938.529157 -21166.955457      5.401639  6  7  4  96       
PG22  11385.323777 -23934.777068    980.891896    196.449420  6  5  7 108       
PG23 -26402.616482   -601.313465   4005.778012    390.163668  5  7  6 155       
PG24  18550.298525   5400.608264 -17981.651463    200.869367  5  5  3 100       
PG25 -18341.853000  -1780.359522 -18712.924223    486.729241  8 10  9 144       
PG26  26455.937894  -2817.964515   3061.373599     64.345044  4  6  6 124       
PG27  19732.772190  16149.207714   8097.745568 999999.999999
PG28 -12570.816582  23145.352318  -1152.793575    -25.752737  7  8  6 122       
PG29  25150.651481  -5797.204526  -6065.295463     35.098877  9  9  4 119       
PG30  17259.645901 -11258.631598  16336.964429    157.483446  6  7  8 114       
PG31  -4256.326579 -22370.355481  13756.952643    -63.160190  6  6  6 106       
PG32 -12767.971480  -8536.174641  22067.910367    239.238576  6  8  6 105       
EOF
